start=new Date('2021-11-08T00:00:00.000Z').valueOf();
sats=[{"ARG_OF_PERICENTER":"67.1067","EPHEMERIS_TYPE":"0","LAUNCH_DATE":"2020-09-03","CLASSIFICATION_TYPE":"U","REF_FRAME":"TEME","SEMIMAJOR_AXIS":"6925.409","DECAY_DATE":null,"MEAN_ELEMENT_THEORY":"SGP4","TLE_LINE1":"1 46330U 20062F   21311.83638364 -.00002214  00000-0 -12984-3 0  9993","SITE":"AFETR","ECCENTRICITY":"0.00016600","TLE_LINE2":"2 46330  53.0539 262.3223 0001660  67.1067 293.0097 15.06380302 66025","PERIAPSIS":"546.124","MEAN_MOTION":"15.06380302","COUNTRY_CODE":"US","NORAD_CAT_ID":"46330","RA_OF_ASC_NODE":"262.3223","TIME_SYSTEM":"UTC","GP_ID":"189215023","ELEMENT_SET_NO":"999","OBJECT_NAME":"STARLINK-1710","FILE":"3207836","INCLINATION":"53.0539","EPOCH":"2021-11-07T20:04:23.546496","BSTAR":"-0.00012984000000","MEAN_MOTION_DDOT":"0.0000000000000","CENTER_NAME":"EARTH","APOAPSIS":"548.424","OBJECT_TYPE":"PAYLOAD","MEAN_ANOMALY":"293.0097","REV_AT_EPOCH":"6602","PERIOD":"95.593","OBJECT_ID":"2020-062F","RCS_SIZE":"LARGE","MEAN_MOTION_DOT":"-0.00002214"},{"MEAN_ELEMENT_THEORY":"SGP4","SEMIMAJOR_AXIS":"6925.306","DECAY_DATE":null,"CLASSIFICATION_TYPE":"U","REF_FRAME":"TEME","EPHEMERIS_TYPE":"0","ARG_OF_PERICENTER":"63.6360","LAUNCH_DATE":"2020-09-03","ECCENTRICITY":"0.00015270","SITE":"AFETR","TLE_LINE1":"1 46331U 20062G   21311.34060582  .00006335  00000-0  44362-3 0  9992","OBJECT_NAME":"STARLINK-1719","FILE":"3207387","INCLINATION":"53.0548","NORAD_CAT_ID":"46331","RA_OF_ASC_NODE":"284.5579","TIME_SYSTEM":"UTC","ELEMENT_SET_NO":"999","GP_ID":"189182424","PERIAPSIS":"546.113","MEAN_MOTION":"15.06413993","COUNTRY_CODE":"US","TLE_LINE2":"2 46331  53.0548 284.5579 0001527  63.6360 296.4785 15.06413993 65668","OBJECT_ID":"2020-062G","RCS_SIZE":"LARGE","MEAN_MOTION_DOT":"0.00006335","REV_AT_EPOCH":"6566","PERIOD":"95.591","APOAPSIS":"548.228","OBJECT_TYPE":"PAYLOAD","MEAN_ANOMALY":"296.4785","EPOCH":"2021-11-07T08:10:28.342848","BSTAR":"0.00044362000000","MEAN_MOTION_DDOT":"0.0000000000000","CENTER_NAME":"EARTH"},{"RCS_SIZE":"LARGE","MEAN_MOTION_DOT":"-0.00000874","OBJECT_ID":"2020-062H","PERIOD":"95.593","REV_AT_EPOCH":"6570","MEAN_ANOMALY":"289.9425","OBJECT_TYPE":"PAYLOAD","APOAPSIS":"548.208","MEAN_MOTION_DDOT":"0.0000000000000","CENTER_NAME":"EARTH","EPOCH":"2021-11-07T14:48:33.323040","BSTAR":"-0.00003980800000","OBJECT_NAME":"STARLINK-1721","FILE":"3207836","INCLINATION":"53.0527","TIME_SYSTEM":"UTC","GP_ID":"189216024","ELEMENT_SET_NO":"999","NORAD_CAT_ID":"46332","RA_OF_ASC_NODE":"283.3057","MEAN_MOTION":"15.06392905","COUNTRY_CODE":"US","PERIAPSIS":"546.262","TLE_LINE2":"2 46332  53.0527 283.3057 0001405  70.1715 289.9425 15.06392905 65708","ECCENTRICITY":"0.00014050","SITE":"AFETR","TLE_LINE1":"1 46332U 20062H   21311.61705235 -.00000874  00000-0 -39808-4 0  9998","MEAN_ELEMENT_THEORY":"SGP4","DECAY_DATE":null,"SEMIMAJOR_AXIS":"6925.370","REF_FRAME":"TEME","CLASSIFICATION_TYPE":"U","LAUNCH_DATE":"2020-09-03","ARG_OF_PERICENTER":"70.1715","EPHEMERIS_TYPE":"0"},{"LAUNCH_DATE":"2020-09-03","EPHEMERIS_TYPE":"0","ARG_OF_PERICENTER":"58.5305","REF_FRAME":"TEME","CLASSIFICATION_TYPE":"U","DECAY_DATE":null,"SEMIMAJOR_AXIS":"6925.450","MEAN_ELEMENT_THEORY":"SGP4","TLE_LINE1":"1 46333U 20062J   21311.63182208  .00009410  00000-0  65036-3 0  9994","SITE":"AFETR","ECCENTRICITY":"0.00016900","TLE_LINE2":"2 46333  53.0540 283.2499 0001690  58.5305 301.5849 15.06366814 65705","COUNTRY_CODE":"US","MEAN_MOTION":"15.06366814","PERIAPSIS":"546.145","GP_ID":"189216269","ELEMENT_SET_NO":"999","TIME_SYSTEM":"UTC","RA_OF_ASC_NODE":"283.2499","NORAD_CAT_ID":"46333","INCLINATION":"53.0540","OBJECT_NAME":"STARLINK-1723","FILE":"3207836","CENTER_NAME":"EARTH","MEAN_MOTION_DDOT":"0.0000000000000","EPOCH":"2021-11-07T15:09:49.427712","BSTAR":"0.00065036000000","APOAPSIS":"548.486","OBJECT_TYPE":"PAYLOAD","MEAN_ANOMALY":"301.5849","PERIOD":"95.594","REV_AT_EPOCH":"6570","MEAN_MOTION_DOT":"0.00009410","RCS_SIZE":"LARGE","OBJECT_ID":"2020-062J"},{"DECAY_DATE":null,"SEMIMAJOR_AXIS":"6925.393","MEAN_ELEMENT_THEORY":"SGP4","LAUNCH_DATE":"2020-09-03","ARG_OF_PERICENTER":"78.5452","EPHEMERIS_TYPE":"0","REF_FRAME":"TEME","CLASSIFICATION_TYPE":"U","ECCENTRICITY":"0.00014690","TLE_LINE1":"1 46334U 20062K   21311.60690414  .00000496  00000-0  52237-4 0  9990","SITE":"AFETR","TIME_SYSTEM":"UTC","ELEMENT_SET_NO":"999","GP_ID":"189215524","NORAD_CAT_ID":"46334","RA_OF_ASC_NODE":"263.3479","OBJECT_NAME":"STARLINK-1725","FILE":"3207836","INCLINATION":"53.0535","TLE_LINE2":"2 46334  53.0535 263.3479 0001469  78.5452 281.5702 15.06385636 65984","MEAN_MOTION":"15.06385636","COUNTRY_CODE":"US","PERIAPSIS":"546.240","PERIOD":"95.593","REV_AT_EPOCH":"6598","RCS_SIZE":"LARGE","MEAN_MOTION_DOT":"0.00000496","OBJECT_ID":"2020-062K","MEAN_MOTION_DDOT":"0.0000000000000","CENTER_NAME":"EARTH","EPOCH":"2021-11-07T14:33:56.517696","BSTAR":"0.00005223700000","OBJECT_TYPE":"PAYLOAD","APOAPSIS":"548.275","MEAN_ANOMALY":"281.5702"},{"OBJECT_TYPE":"PAYLOAD","MEAN_ANOMALY":"300.8343","APOAPSIS":"548.402","EPOCH":"2021-11-07T07:54:33.745536","BSTAR":"-0.00001901100000","MEAN_MOTION_DDOT":"0.0000000000000","CENTER_NAME":"EARTH","OBJECT_ID":"2020-062L","MEAN_MOTION_DOT":"-0.00000564","RCS_SIZE":"LARGE","REV_AT_EPOCH":"6566","PERIOD":"95.594","PERIAPSIS":"546.195","COUNTRY_CODE":"US","MEAN_MOTION":"15.06372338","TLE_LINE2":"2 46335  53.0522 284.5935 0001593  59.2802 300.8343 15.06372338 65662","INCLINATION":"53.0522","OBJECT_NAME":"STARLINK-1727","FILE":"3207387","RA_OF_ASC_NODE":"284.5935","NORAD_CAT_ID":"46335","GP_ID":"189181925","ELEMENT_SET_NO":"999","TIME_SYSTEM":"UTC","SITE":"AFETR","TLE_LINE1":"1 46335U 20062L   21311.32955724 -.00000564  00000-0 -19011-4 0  9999","ECCENTRICITY":"0.00015930","CLASSIFICATION_TYPE":"U","REF_FRAME":"TEME","EPHEMERIS_TYPE":"0","ARG_OF_PERICENTER":"59.2802","LAUNCH_DATE":"2020-09-03","MEAN_ELEMENT_THEORY":"SGP4","SEMIMAJOR_AXIS":"6925.433","DECAY_DATE":null},{"REV_AT_EPOCH":"6602","PERIOD":"95.593","OBJECT_ID":"2020-062M","MEAN_MOTION_DOT":"0.00000560","RCS_SIZE":"LARGE","EPOCH":"2021-11-07T22:01:08.575104","BSTAR":"0.00005652200000","MEAN_MOTION_DDOT":"0.0000000000000","CENTER_NAME":"EARTH","OBJECT_TYPE":"PAYLOAD","APOAPSIS":"548.389","MEAN_ANOMALY":"294.1743","RA_OF_ASC_NODE":"261.9661","NORAD_CAT_ID":"46336","GP_ID":"189216525","ELEMENT_SET_NO":"999","TIME_SYSTEM":"UTC","INCLINATION":"53.0545","FILE":"3207836","OBJECT_NAME":"STARLINK-1738","TLE_LINE2":"2 46336  53.0545 261.9661 0001655  65.9419 294.1743 15.06390454 66029","PERIAPSIS":"546.097","COUNTRY_CODE":"US","MEAN_MOTION":"15.06390454","ECCENTRICITY":"0.00016550","TLE_LINE1":"1 46336U 20062M   21311.91746036  .00000560  00000-0  56522-4 0  9991","SITE":"AFETR","SEMIMAJOR_AXIS":"6925.378","DECAY_DATE":null,"MEAN_ELEMENT_THEORY":"SGP4","ARG_OF_PERICENTER":"65.9419","EPHEMERIS_TYPE":"0","LAUNCH_DATE":"2020-09-03","CLASSIFICATION_TYPE":"U","REF_FRAME":"TEME"},{"REF_FRAME":"TEME","CLASSIFICATION_TYPE":"U","LAUNCH_DATE":"2020-09-03","ARG_OF_PERICENTER":"63.9027","EPHEMERIS_TYPE":"0","MEAN_ELEMENT_THEORY":"SGP4","DECAY_DATE":null,"SEMIMAJOR_AXIS":"6925.339","SITE":"AFETR","TLE_LINE1":"1 46337U 20062N   21311.60046786  .00002258  00000-0  17040-3 0  9990","ECCENTRICITY":"0.00015740","MEAN_MOTION":"15.06403000","COUNTRY_CODE":"US","PERIAPSIS":"546.114","TLE_LINE2":"2 46337  53.0526 263.3789 0001574  63.9027 296.2124 15.06403000 65981","OBJECT_NAME":"STARLINK-1750","FILE":"3207836","INCLINATION":"53.0526","TIME_SYSTEM":"UTC","ELEMENT_SET_NO":"999","GP_ID":"189216770","NORAD_CAT_ID":"46337","RA_OF_ASC_NODE":"263.3789","APOAPSIS":"548.294","OBJECT_TYPE":"PAYLOAD","MEAN_ANOMALY":"296.2124","CENTER_NAME":"EARTH","MEAN_MOTION_DDOT":"0.0000000000000","EPOCH":"2021-11-07T14:24:40.423104","BSTAR":"0.00017040000000","RCS_SIZE":"LARGE","MEAN_MOTION_DOT":"0.00002258","OBJECT_ID":"2020-062N","PERIOD":"95.592","REV_AT_EPOCH":"6598"},{"DECAY_DATE":null,"SEMIMAJOR_AXIS":"6925.387","MEAN_ELEMENT_THEORY":"SGP4","LAUNCH_DATE":"2020-09-03","ARG_OF_PERICENTER":"73.6581","EPHEMERIS_TYPE":"0","REF_FRAME":"TEME","CLASSIFICATION_TYPE":"U","ECCENTRICITY":"0.00013030","TLE_LINE1":"1 46338U 20062P   21311.65024092 -.00001355  00000-0 -72138-4 0  9991","SITE":"AFETR","ELEMENT_SET_NO":"999","GP_ID":"189215024","TIME_SYSTEM":"UTC","RA_OF_ASC_NODE":"283.1489","NORAD_CAT_ID":"46338","INCLINATION":"53.0538","FILE":"3207836","OBJECT_NAME":"STARLINK-1752","TLE_LINE2":"2 46338  53.0538 283.1489 0001303  73.6581 286.4551 15.06387393 65706","COUNTRY_CODE":"US","MEAN_MOTION":"15.06387393","PERIAPSIS":"546.350","PERIOD":"95.593","REV_AT_EPOCH":"6570","MEAN_MOTION_DOT":"-0.00001355","RCS_SIZE":"LARGE","OBJECT_ID":"2020-062P","MEAN_MOTION_DDOT":"0.0000000000000","CENTER_NAME":"EARTH","BSTAR":"-0.00007213800000","EPOCH":"2021-11-07T15:36:20.815488","OBJECT_TYPE":"PAYLOAD","APOAPSIS":"548.155","MEAN_ANOMALY":"286.4551"},{"MEAN_MOTION_DDOT":"0.0000000000000","CENTER_NAME":"EARTH","EPOCH":"2021-11-07T18:15:32.967936","BSTAR":"0.00050475000000","OBJECT_TYPE":"PAYLOAD","MEAN_ANOMALY":"331.9693","APOAPSIS":"305.027","PERIOD":"90.601","REV_AT_EPOCH":"6650","RCS_SIZE":"LARGE","MEAN_MOTION_DOT":"0.00151966","OBJECT_ID":"2020-062Q","TLE_LINE2":"2 46339  53.0506 227.4506 0001519  28.1413 331.9693 15.89383546 66500","MEAN_MOTION":"15.89383546","COUNTRY_CODE":"US","PERIAPSIS":"302.997","TIME_SYSTEM":"UTC","ELEMENT_SET_NO":"999","GP_ID":"189215274","NORAD_CAT_ID":"46339","RA_OF_ASC_NODE":"227.4506","FILE":"3207836","OBJECT_NAME":"STARLINK-1757","INCLINATION":"53.0506","TLE_LINE1":"1 46339U 20062Q   21311.76079824  .00151966  00000-0  50475-3 0  9998","SITE":"AFETR","ECCENTRICITY":"0.00015190","LAUNCH_DATE":"2020-09-03","EPHEMERIS_TYPE":"0","ARG_OF_PERICENTER":"28.1413","REF_FRAME":"TEME","CLASSIFICATION_TYPE":"U","DECAY_DATE":null,"SEMIMAJOR_AXIS":"6682.147","MEAN_ELEMENT_THEORY":"SGP4"}];
